IRIDIUM 124             
1 42810U 17039H   26115.77697595  .00000056  00000+0  10641-4 0  9991
2 42810  86.4458 312.2900 0002212  88.9887 271.1567 14.43280918467550
IRIDIUM 128             
1 42811U 17039J   26115.88276340 -.00000051  00000+0 -25297-4 0  9995
2 42811  86.3986  47.0076 0002258  80.8169 279.3282 14.34217036462489
IRIDIUM 121             
1 42812U 17039K   26115.77153666  .00000219  00000+0  71268-4 0  9992
2 42812  86.4016  15.5750 0002211  82.1603 277.9844 14.34219195462319
IRIDIUM 133             
1 42955U 17061A   26115.84470747  .00000004  00000+0 -55074-5 0  9996
2 42955  86.3986  47.1398 0002151  85.1012 275.0430 14.34217454447275
IRIDIUM 100             
1 42956U 17061B   26115.83836399  .00000093  00000+0  26209-4 0  9999
2 42956  86.3984  47.0620 0002284  84.6834 275.4622 14.34217235447278
IRIDIUM 122             
1 42957U 17061C   26115.87642074  .00000083  00000+0  22641-4 0  9994
2 42957  86.3987  47.0462 0002289  87.4639 272.6819 14.34217689447286
IRIDIUM 129             
1 42958U 17061D   26115.90179033 -.00000066  00000+0 -30454-4 0  9993
2 42958  86.3986  47.1023 0001833  86.3358 273.8047 14.34217035447304
IRIDIUM 119             
1 42959U 17061E   26115.87007781 -.00000012  00000+0 -11220-4 0  9991
2 42959  86.3987  47.1112 0002114  88.5252 271.6186 14.34217404447316
IRIDIUM 107             
1 42960U 17061F   26115.88910669 -.00000193  00000+0 -75884-4 0  9998
2 42960  86.3989  47.1243 0002361  87.7156 272.4310 14.34217012447327
IRIDIUM 132             
1 42961U 17061G   26115.89544823  .00000050  00000+0  10754-4 0  9990
2 42961  86.3988  47.1012 0002258  85.4744 274.6710 14.34217896447322
IRIDIUM 136             
1 42962U 17061H   26115.85739300 -.00000030  00000+0 -17618-4 0  9999
2 42962  86.3986  47.1237 0002160  87.5772 272.5671 14.34217284447331
IRIDIUM 139             
1 42963U 17061J   26115.86373527 -.00000021  00000+0 -14559-4 0  9997
2 42963  86.3988  47.1824 0002189  83.8138 276.3307 14.34217382447340
IRIDIUM 125             
1 42964U 17061K   26115.85105025  .00000004  00000+0 -54835-5 0  9995
2 42964  86.3990  47.2472 0002351  97.7370 262.4092 14.34217644447356
IRIDIUM 135             
1 43070U 17083A   26115.68563867  .00000044  00000+0  86605-5 0  9994
2 43070  86.3988 343.9711 0002191  86.2512 273.8935 14.34217880436629
IRIDIUM 138             
1 43071U 17083B   26115.71100851  .00000000  00000+0 -71274-5 0  9998
2 43071  86.3996 343.6477 0001862  94.8400 265.3009 14.34217526436614
IRIDIUM 116             
1 43072U 17083C   26115.67929544  .00000050  00000+0  10621-4 0  9994
2 43072  86.3986 343.9603 0002331  80.7988 279.3471 14.34218081436643
IRIDIUM 130             
1 43073U 17083D   26115.71735199 -.00000032  00000+0 -18335-4 0  9993
2 43073  86.3992 344.2142 0002311  85.3368 274.8092 14.34217545436591
